start=new Date('2022-10-16T00:00:00.000Z').valueOf();
sats=[{"FILE":"3614916","RA_OF_ASC_NODE":"358.9676","MEAN_ANOMALY":"326.9550","EPHEMERIS_TYPE":"0","SEMIMAJOR_AXIS":"6925.313","APOAPSIS":"548.788","PERIOD":"95.591","CLASSIFICATION_TYPE":"U","ECCENTRICITY":"0.00023250","EPOCH":"2022-10-15T11:36:02.348064","MEAN_MOTION_DOT":"0.00004697","ARG_OF_PERICENTER":"33.1584","SITE":"AFETR","MEAN_MOTION":"15.06411765","GP_ID":"215204935","MEAN_ELEMENT_THEORY":"SGP4","INCLINATION":"53.0554","ELEMENT_SET_NO":"999","OBJECT_ID":"2021-040AH","NORAD_CAT_ID":"48459","BSTAR":"0.00033392000000","MEAN_MOTION_DDOT":"0.0000000000000","COUNTRY_CODE":"US","TIME_SYSTEM":"UTC","PERIAPSIS":"545.567","TLE_LINE1":"1 48459U 21040AH  22288.48336051  .00004697  00000-0  33392-3 0  9998","OBJECT_NAME":"STARLINK-2579","DECAY_DATE":null,"REV_AT_EPOCH":"7948","TLE_LINE2":"2 48459  53.0554 358.9676 0002325  33.1584 326.9550 15.06411765 79488","REF_FRAME":"TEME","RCS_SIZE":"LARGE","CENTER_NAME":"EARTH","LAUNCH_DATE":"2021-05-09","OBJECT_TYPE":"PAYLOAD"},{"COUNTRY_CODE":"US","PERIAPSIS":"545.821","TIME_SYSTEM":"UTC","OBJECT_NAME":"STARLINK-2582","TLE_LINE1":"1 48460U 21040AJ  22288.63445390  .00001525  00000-0  12129-3 0  9996","DECAY_DATE":null,"REV_AT_EPOCH":"8001","TLE_LINE2":"2 48460  53.0563 357.9450 0002025  38.0114 322.1018 15.06396735 80016","REF_FRAME":"TEME","RCS_SIZE":"LARGE","CENTER_NAME":"EARTH","LAUNCH_DATE":"2021-05-09","OBJECT_TYPE":"PAYLOAD","MEAN_MOTION":"15.06396735","GP_ID":"215246618","MEAN_ELEMENT_THEORY":"SGP4","INCLINATION":"53.0563","ELEMENT_SET_NO":"999","OBJECT_ID":"2021-040AJ","NORAD_CAT_ID":"48460","BSTAR":"0.00012129000000","MEAN_MOTION_DDOT":"0.0000000000000","EPOCH":"2022-10-15T15:13:36.816960","MEAN_MOTION_DOT":"0.00001525","ARG_OF_PERICENTER":"38.0114","SITE":"AFETR","FILE":"3615679","RA_OF_ASC_NODE":"357.9450","MEAN_ANOMALY":"322.1018","EPHEMERIS_TYPE":"0","SEMIMAJOR_AXIS":"6925.359","APOAPSIS":"548.626","PERIOD":"95.592","CLASSIFICATION_TYPE":"U","ECCENTRICITY":"0.00020250"},{"MEAN_MOTION":"15.06406065","GP_ID":"215246869","MEAN_ELEMENT_THEORY":"SGP4","INCLINATION":"53.0555","ELEMENT_SET_NO":"999","OBJECT_ID":"2021-040AK","NORAD_CAT_ID":"48461","BSTAR":"-0.00006161800000","MEAN_MOTION_DDOT":"0.0000000000000","COUNTRY_CODE":"US","PERIAPSIS":"546.012","TIME_SYSTEM":"UTC","TLE_LINE1":"1 48461U 21040AK  22288.58284074 -.00001199  00000-0 -61618-4 0  9998","OBJECT_NAME":"STARLINK-2693","DECAY_DATE":null,"REV_AT_EPOCH":"7950","TLE_LINE2":"2 48461  53.0555 358.1771 0001708  49.8445 310.2694 15.06406065 79509","REF_FRAME":"TEME","CENTER_NAME":"EARTH","RCS_SIZE":"LARGE","LAUNCH_DATE":"2021-05-09","OBJECT_TYPE":"PAYLOAD","FILE":"3615679","RA_OF_ASC_NODE":"358.1771","MEAN_ANOMALY":"310.2694","EPHEMERIS_TYPE":"0","SEMIMAJOR_AXIS":"6925.330","APOAPSIS":"548.378","PERIOD":"95.592","CLASSIFICATION_TYPE":"U","ECCENTRICITY":"0.00017080","EPOCH":"2022-10-15T13:59:17.439936","MEAN_MOTION_DOT":"-0.00001199","ARG_OF_PERICENTER":"49.8445","SITE":"AFETR"},{"EPOCH":"2022-10-15T16:45:51.609600","ARG_OF_PERICENTER":"55.2154","MEAN_MOTION_DOT":"-0.00000018","SITE":"AFETR","MEAN_ANOMALY":"304.8993","RA_OF_ASC_NODE":"2.9192","FILE":"3615679","SEMIMAJOR_AXIS":"6925.306","EPHEMERIS_TYPE":"0","CLASSIFICATION_TYPE":"U","PERIOD":"95.591","ECCENTRICITY":"0.00016810","APOAPSIS":"548.336","TIME_SYSTEM":"UTC","PERIAPSIS":"546.007","COUNTRY_CODE":"US","TLE_LINE2":"2 48462  53.0573   2.9192 0001681  55.2154 304.8993 15.06413737 79447","REF_FRAME":"TEME","REV_AT_EPOCH":"7944","DECAY_DATE":null,"OBJECT_NAME":"STARLINK-2683","TLE_LINE1":"1 48462U 21040AL  22288.69851400 -.00000018  00000-0  17658-4 0  9997","RCS_SIZE":"LARGE","CENTER_NAME":"EARTH","OBJECT_TYPE":"PAYLOAD","LAUNCH_DATE":"2021-05-09","GP_ID":"215247120","MEAN_MOTION":"15.06413737","INCLINATION":"53.0573","MEAN_ELEMENT_THEORY":"SGP4","OBJECT_ID":"2021-040AL","ELEMENT_SET_NO":"999","MEAN_MOTION_DDOT":"0.0000000000000","BSTAR":"0.00001765800000","NORAD_CAT_ID":"48462"},{"OBJECT_TYPE":"PAYLOAD","LAUNCH_DATE":"2021-05-09","RCS_SIZE":"LARGE","CENTER_NAME":"EARTH","REF_FRAME":"TEME","TLE_LINE2":"2 48463  53.0543   3.5243 0001807  49.2102 310.9044 15.06418925 80693","REV_AT_EPOCH":"8069","DECAY_DATE":null,"TLE_LINE1":"1 48463U 21040AM  22288.50586656  .00006320  00000-0  44258-3 0  9992","OBJECT_NAME":"STARLINK-2689","PERIAPSIS":"545.904","TIME_SYSTEM":"UTC","COUNTRY_CODE":"US","MEAN_MOTION_DDOT":"0.0000000000000","BSTAR":"0.00044258000000","NORAD_CAT_ID":"48463","OBJECT_ID":"2021-040AM","ELEMENT_SET_NO":"999","INCLINATION":"53.0543","MEAN_ELEMENT_THEORY":"SGP4","GP_ID":"215162746","MEAN_MOTION":"15.06418925","SITE":"AFETR","ARG_OF_PERICENTER":"49.2102","MEAN_MOTION_DOT":"0.00006320","EPOCH":"2022-10-15T12:08:26.870784","PERIOD":"95.591","CLASSIFICATION_TYPE":"U","ECCENTRICITY":"0.00018070","APOAPSIS":"548.407","SEMIMAJOR_AXIS":"6925.291","EPHEMERIS_TYPE":"0","MEAN_ANOMALY":"310.9044","RA_OF_ASC_NODE":"3.5243","FILE":"3613710"},{"SITE":"AFETR","MEAN_MOTION_DOT":"0.00001446","ARG_OF_PERICENTER":"57.3537","EPOCH":"2022-10-15T11:37:57.768096","APOAPSIS":"548.348","PERIOD":"95.592","CLASSIFICATION_TYPE":"U","ECCENTRICITY":"0.00016660","EPHEMERIS_TYPE":"0","SEMIMAJOR_AXIS":"6925.329","FILE":"3614916","RA_OF_ASC_NODE":"3.6146","MEAN_ANOMALY":"302.7613","LAUNCH_DATE":"2021-05-09","OBJECT_TYPE":"PAYLOAD","CENTER_NAME":"EARTH","RCS_SIZE":"MEDIUM","TLE_LINE1":"1 48464U 21040AN  22288.48469639  .00001446  00000-0  11597-3 0  9995","OBJECT_NAME":"STARLINK-2686","DECAY_DATE":null,"REV_AT_EPOCH":"7941","REF_FRAME":"TEME","TLE_LINE2":"2 48464  53.0550   3.6146 0001666  57.3537 302.7613 15.06406374 79414","COUNTRY_CODE":"US","PERIAPSIS":"546.040","TIME_SYSTEM":"UTC","NORAD_CAT_ID":"48464","MEAN_MOTION_DDOT":"0.0000000000000","BSTAR":"0.00011597000000","ELEMENT_SET_NO":"999","OBJECT_ID":"2021-040AN","MEAN_ELEMENT_THEORY":"SGP4","INCLINATION":"53.0550","MEAN_MOTION":"15.06406374","GP_ID":"215206185"},{"GP_ID":"215247370","MEAN_MOTION":"15.06419320","MEAN_ELEMENT_THEORY":"SGP4","INCLINATION":"53.0548","ELEMENT_SET_NO":"999","OBJECT_ID":"2021-040AP","BSTAR":"0.00045303000000","MEAN_MOTION_DDOT":"0.0000000000000","NORAD_CAT_ID":"48465","COUNTRY_CODE":"US","PERIAPSIS":"545.883","TIME_SYSTEM":"UTC","OBJECT_NAME":"STARLINK-2681","TLE_LINE1":"1 48465U 21040AP  22288.69479164  .00006476  00000-0  45303-3 0  9993","TLE_LINE2":"2 48465  53.0548   2.6565 0001836  46.0003 314.1137 15.06419320 79455","REF_FRAME":"TEME","REV_AT_EPOCH":"7945","DECAY_DATE":null,"RCS_SIZE":"LARGE","CENTER_NAME":"EARTH","LAUNCH_DATE":"2021-05-09","OBJECT_TYPE":"PAYLOAD","FILE":"3615679","MEAN_ANOMALY":"314.1137","RA_OF_ASC_NODE":"2.6565","SEMIMAJOR_AXIS":"6925.289","EPHEMERIS_TYPE":"0","APOAPSIS":"548.426","CLASSIFICATION_TYPE":"U","PERIOD":"95.591","ECCENTRICITY":"0.00018360","EPOCH":"2022-10-15T16:40:29.997696","ARG_OF_PERICENTER":"46.0003","MEAN_MOTION_DOT":"0.00006476","SITE":"AFETR"},{"APOAPSIS":"548.473","CLASSIFICATION_TYPE":"U","PERIOD":"95.591","ECCENTRICITY":"0.00018750","EPHEMERIS_TYPE":"0","SEMIMAJOR_AXIS":"6925.309","FILE":"3614916","RA_OF_ASC_NODE":"3.6230","MEAN_ANOMALY":"313.3677","SITE":"AFETR","MEAN_MOTION_DOT":"0.00002706","ARG_OF_PERICENTER":"46.7468","EPOCH":"2022-10-15T11:32:39.274368","NORAD_CAT_ID":"48466","BSTAR":"0.00020042000000","MEAN_MOTION_DDOT":"0.0000000000000","ELEMENT_SET_NO":"999","OBJECT_ID":"2021-040AQ","MEAN_ELEMENT_THEORY":"SGP4","INCLINATION":"53.0546","MEAN_MOTION":"15.06412801","GP_ID":"215204686","LAUNCH_DATE":"2021-05-09","OBJECT_TYPE":"PAYLOAD","CENTER_NAME":"EARTH","RCS_SIZE":"LARGE","OBJECT_NAME":"STARLINK-2687","TLE_LINE1":"1 48466U 21040AQ  22288.48101012  .00002706  00000-0  20042-3 0  9990","REV_AT_EPOCH":"7942","DECAY_DATE":null,"REF_FRAME":"TEME","TLE_LINE2":"2 48466  53.0546   3.6230 0001875  46.7468 313.3677 15.06412801 79423","COUNTRY_CODE":"US","PERIAPSIS":"545.876","TIME_SYSTEM":"UTC"},{"EPOCH":"2022-10-15T15:20:54.141792","ARG_OF_PERICENTER":"47.5513","MEAN_MOTION_DOT":"0.00001105","SITE":"AFETR","FILE":"3615679","MEAN_ANOMALY":"312.5630","RA_OF_ASC_NODE":"2.9211","SEMIMAJOR_AXIS":"6925.371","EPHEMERIS_TYPE":"0","APOAPSIS":"548.496","ECCENTRICITY":"0.00018200","PERIOD":"95.593","CLASSIFICATION_TYPE":"U","COUNTRY_CODE":"US","PERIAPSIS":"545.975","TIME_SYSTEM":"UTC","OBJECT_NAME":"STARLINK-2659","TLE_LINE1":"1 48467U 21040AR  22288.63951553  .00001105  00000-0  93111-4 0  9991","TLE_LINE2":"2 48467  53.0563   2.9211 0001820  47.5513 312.5630 15.06392781 79440","REF_FRAME":"TEME","REV_AT_EPOCH":"7944","DECAY_DATE":null,"CENTER_NAME":"EARTH","RCS_SIZE":"LARGE","LAUNCH_DATE":"2021-05-09","OBJECT_TYPE":"PAYLOAD","GP_ID":"215246369","MEAN_MOTION":"15.06392781","MEAN_ELEMENT_THEORY":"SGP4","INCLINATION":"53.0563","ELEMENT_SET_NO":"999","OBJECT_ID":"2021-040AR","BSTAR":"0.00009311100000","MEAN_MOTION_DDOT":"0.0000000000000","NORAD_CAT_ID":"48467"},{"EPHEMERIS_TYPE":"0","SEMIMAJOR_AXIS":"6925.371","FILE":"3615679","RA_OF_ASC_NODE":"3.0050","MEAN_ANOMALY":"308.5138","APOAPSIS":"548.379","PERIOD":"95.593","CLASSIFICATION_TYPE":"U","ECCENTRICITY":"0.00016510","EPOCH":"2022-10-15T14:54:21.517632","SITE":"AFETR","MEAN_MOTION_DOT":"-0.00000277","ARG_OF_PERICENTER":"51.5999","MEAN_ELEMENT_THEORY":"SGP4","INCLINATION":"53.0571","MEAN_MOTION":"15.06392654","GP_ID":"215246619","NORAD_CAT_ID":"48468","BSTAR":"0.00000031222000","MEAN_MOTION_DDOT":"0.0000000000000","ELEMENT_SET_NO":"999","OBJECT_ID":"2021-040AS","OBJECT_NAME":"STARLINK-2685","TLE_LINE1":"1 48468U 21040AS  22288.62108238 -.00000277  00000-0  31222-6 0  9992","DECAY_DATE":null,"REV_AT_EPOCH":"7944","TLE_LINE2":"2 48468  53.0571   3.0050 0001651  51.5999 308.5138 15.06392654 79445","REF_FRAME":"TEME","COUNTRY_CODE":"US","PERIAPSIS":"546.093","TIME_SYSTEM":"UTC","LAUNCH_DATE":"2021-05-09","OBJECT_TYPE":"PAYLOAD","RCS_SIZE":"LARGE","CENTER_NAME":"EARTH"}];
